IDEFIX & ARIANE 42P R/B 
1 27422U 02021B   26057.44847347  .00000257  00000+0  11412-3 0  9998
2 27422  98.5858 356.1900 0010973 216.7715 143.2716 14.31016791242415
CZ-4B R/B               
1 27432U 02024C   26057.63372165  .00000040  00000+0  43252-4 0  9992
2 27432  98.8865 111.0948 0050955  55.2640 107.1101 14.14545457227679
MIDORI II (ADEOS-II)    
1 27597U 02056A   26057.46289711  .00000260  00000+0  12021-3 0  9997
2 27597  98.7748  15.8646 0001949  58.8376 301.2997 14.29275006208697
H-2A R/B                
1 27601U 02056E   26057.48103663  .00000267  00000+0  10823-3 0  9991
2 27601  98.3180  18.2748 0069794 194.0803 275.7141 14.33752036212508
CZ-4B R/B               
1 28059U 03049C   26057.51816557  .00000424  00000+0  10892-3 0  9990
2 28059  98.6867  51.9857 0046990 265.7823  93.8002 14.55007079184975
CZ-2C R/B               
1 28222U 04012C   26057.15466142  .00049731  00000+0  54443-3 0  9998
2 28222  97.7267 121.3663 0013849 356.0259   4.0886 15.63027474202473
SL-16 R/B               
1 28353U 04021B   26057.56729272  .00000042  00000+0  46876-4 0  9998
2 28353  70.9989 255.8352 0003465  34.2343 325.9002 14.14599484121264
CZ-4B R/B               
1 28415U 04035C   26057.06338496  .00007837  00000+0  27814-3 0  9990
2 28415  97.3526  91.4468 0032475  13.3200 346.8890 15.28820428178134
ARIANE 5 R/B            
1 28499U 04049H   26057.44945441  .00000800  00000+0  94536-4 0  9992
2 28499  98.2609 225.4873 0084739  28.3016 332.2763 14.85241278144120
CZ-2D R/B               
1 28738U 05024B   26057.48090082  .00041558  00000+0  53272-3 0  9994
2 28738  97.3620  72.2263 0007299  74.0271 286.1789 15.59027530138030
